#dP2020  7 30  0  0  0.00000000      96 __u+U ITR00 FIT  IAC
## 2116 345600.00000000   900.00000000 59060 0.0000000000000
+  116   C06C07C08C09C10C11C12C13C14C16C19C20C21C22C23C24C25
+        C26C27C28C29C30C32C33C34C35C36C37C38C39C40C43C44C45
+        C46E01E02E03E04E05E07E08E09E11E12E13E14E15E18E19E21
+        E24E25E26E27E30E31E33E36G01G02G03G04G05G06G07G08G09
+        G10G11G12G13G14G15G16G17G18G19G20G21G22G23G24G25G26
+        G27G28G29G30G31G32J01J02J03R01R02R03R04R05R07R08R09
+        R11R12R13R14R15R16R17R18R19R20R21R23R24R26  0  0  0
++         7  9  9  8  8  6  7  9  8  8  7  9  7  7  8  7  6
++         7  6  7  7  6  8  6  6  6  8  8  7  7  6  9  8  7
++        13  6  7  6  6  7  7  7  6  6  6  6  6  7  6  6  6
++         6  6  6  6  6  7  6  6  6  6  7  6  7  6  6  6  6
++         6  6  6  7  6  7  6  6  5  6  5  6  6  8  6  6  6
++         6  7  6  6  6  6  8  6  8  7  7  7  8  8  8  8  7
++         6  7  7  6  8  7  6  6  9  7  7  5  7  7  0  0  0
%c M  cc GPS ccc cccc cccc cccc cccc ccccc ccccc ccccc ccccc
%c cc cc ccc ccc cccc cccc cccc cccc ccccc ccccc ccccc ccccc
%f  0.0000000  0.000000000  0.00000000000  0.000000000000000
%f  0.0000000  0.000000000  0.00000000000  0.000000000000000
%i    0    0    0    0      0      0      0      0         0
%i    0    0    0    0      0      0      0      0         0
/* INFORMATION & ANALYSIS CENTER (IAC)      ULTRA-RAPID DATA
/* S/V CLOCKS ARE ALIGNED TO GNSS TIME                      
/* G:C1WC2W R:C1PC2P E:C1XC5X C:C2IC6I J:C1CC2S             
/* PCV:IGS14_2113 OL/AL:FES2004  NONE     YN ORB:CoN CLK:CoN
*  2020 07 30 15 45  0.00000000
PC06 -17943.975453  22972.331975  30729.673649    799.664393
PC07 -18094.567691  38346.168675   2177.750199    117.941286
PC08  -4186.215406  27425.458314 -31534.361134   -411.029568
PC09  -3215.507906  24572.440177  34350.170128    710.912493
PC10  -8517.232727  40369.689632  -9551.176588   -223.599213
PC11  27146.960417   6213.980650  -1164.816001   -523.910338
PC12  16067.037703  14693.321176 -17410.373314    450.141995
PC13   7176.762594  35118.846461 -21890.608977    570.113790
PC14  18676.850973    230.781795  20741.333004    745.178711
PC16 -15902.096603  22991.349199  31593.333150   -594.138961
PC19 -21476.498623   9289.917788 -15196.150822    492.211318
PC20 -13602.659936  -8435.191641 -22845.234829   -836.653399
PC21  -2775.821826  21860.972371  17153.889571   -662.250465
PC22 -17128.840222  22006.651467   1453.572868   -767.907111
PC23   7707.935380 -18934.196316 -18979.119496   -844.440471
PC24  15954.427192  19377.087110 -12174.499423   -753.389470
PC25  16724.757695   -626.419917 -22326.593788   -704.103165
PC26   6927.947752  26694.073159   4158.933083    773.956840
PC27  -5848.398389 -16468.257820  21732.380057    373.192486
PC28  14939.267822 -11528.541979  20553.251421   -188.897868
PC29 -26908.570915    894.602339  -7355.754029    263.083460
PC30 -23356.402809 -11070.792110  10492.112897    353.975600
PC32   2599.974399 -21860.535427 -17127.325969   -879.000121
PC33  21429.334105  -9264.210502  15277.223863   -795.355640
PC34  23654.443345  10915.787674 -10040.026977   -889.493746
PC35 -14728.827093  12002.918802 -20434.805592 999999.999999
PC36 -16808.531868    -33.058540  22307.363530   -884.050606
PC37  -5874.344389 -26859.950263  -4773.913956   -883.487594
PC38  -4118.950298  29787.978407 -29505.108500 999999.999999
PC39 -14940.011471  23899.198217  31327.325690 999999.999999
PC40 -16039.023482  38476.974539  -6971.892528 999999.999999
PC43  27016.365106   -527.252590   7001.449393   -305.305637
PC44   6184.125569  16407.859425 -21723.686555   -298.356153
PC45  -7565.819655  18926.624554  19069.027951    192.547046
PC46 -16149.632305 -18908.311883  12708.606184 999999.999999
PE01 -11170.139737  24170.481881  12941.916558   -909.147098
PE02  11111.825445 -24243.682021 -12845.154169    150.926126
PE03  20316.045883 -18150.929278 -11550.766047   -326.256718
PE04  -1104.560974  18473.898614  23110.252069   -576.343031
PE05  27865.196022  -7175.365412   6936.730834   -358.869098
PE07 -19090.079359  -7879.223075 -21201.063235   -415.933520
PE08    770.386799 -18273.129334 -23265.408018   6142.218373
PE09  19145.439716   7594.961097  21259.276788   5979.891307
PE11  23839.851004  17533.757604   -898.903824   4451.923378
PE12   9163.468838  21297.030613 -18414.737200   5680.657790
PE13 -23814.040051 -17544.157292   1124.222436    402.675252
PE14  -8939.453359  20527.746931 -23653.887546  -1102.539087
PE15  -9474.856301 -21236.110508  18314.899629    858.110036
PE18   7697.610419 -14480.365317  16665.311423  -1206.537880
PE19 -21881.948245  17391.095704   9751.935422     40.686870
PE21 -16590.497867   5607.406442  23869.066643   -613.003525
PE24  12292.586567  17016.640935 -20868.618106   5323.647396
PE25  16589.350450  -5433.719008 -23893.583081   -514.389191
PE26 -24024.985421  -3192.192631 -17002.517048   2900.345518
PE27 -12487.407073 -16632.494980  21069.650364    166.408565
PE30   -623.295288 -29087.975005   5458.143613   3705.816394
PE31   1054.806775  28991.736250  -5885.257431   -473.430655
PE33 -10431.873108  12450.847991 -24746.082785   -464.318086
PE36  24165.379334   3554.240715  16718.671082    527.322547
PG01  20373.947266  12377.844122  11822.102474     30.183569
PG02 -12505.943672 -21982.707230   8819.477055   -494.953137
PG03  14970.309790   2685.432853  21696.242896   -255.367385
PG04  25725.530031   1086.047794   6600.371386   -118.692598
PG05  -4441.496776 -21213.431728 -15366.282654    -17.752596
PG06  -1033.789476 -19788.534539  17714.323427   -309.704492
PG07  15485.904950  -4484.904603 -20864.213409   -339.044745
PG08  19760.104580   7579.446819 -16196.506800    -42.773871
PG09  24855.207172  -8129.622373  -4745.800920   -262.297057
PG10 -11593.587083  23369.417349  -4146.009511   -414.069951
PG11  23229.424320  12288.443656  -2755.968245   -206.612765
PG12 -14216.791979  -4204.139670  21795.784110     87.030753
PG13 -11715.941681 -13258.247108 -19960.695097     31.334307
PG14  -4123.762875  15483.460503  21509.286951 999999.999999
PG15 -21014.979662  -6153.407682 -15610.227737   -214.003462
PG16   4263.686689  19160.050614 -17894.992979   -189.308630
PG17  13354.231129 -13981.340822  18614.596175    303.705801
PG18 -14874.304482   5142.095446 -21413.790457    258.677143
PG19   5701.559103 -14555.127314  21165.688543   -125.097032
PG20 -14902.947646  15944.980231 -15052.837242    527.175128
PG21   3379.356258  20262.047839 -16272.779653     29.860239
PG22  12911.951761  11028.390262  20657.866149   -768.206393
PG23 -15411.134658  17428.324146 -12839.068362     22.904347
PG24 -21456.819676 -13004.456270   9060.408446    -16.420615
PG25 -16735.756539   7909.193009  18712.738763     29.317199
PG26  -3870.962459  25482.382655  -5926.865515    252.590289
PG27   9167.474575  13067.809261 -21431.891657   -358.860221
PG28  12453.795775 -23442.731882  -1664.137425    694.531137
PG29 -26346.489928   3394.487309  -1079.870350   -161.787927
PG30   7617.878000 -14811.206882 -20596.747466   -272.438004
PG31   1759.456332  20705.028232  16229.074865    -58.971903
PG32 -11810.477147  15230.177223  18297.545357    325.200117
PJ01 -28356.191604  31305.949195   3853.212932   -194.642469
PJ02 -27078.783598  24805.929454  25604.326159     -1.804107
PJ03 -31222.803251  17393.415793 -17797.891774     -0.244251
PR01  -1129.011226  14301.972503  21097.677423     65.300641
PR02  16198.357688  -1101.424783  19734.696464    438.697035
PR03  20889.899357 -13555.896834   5681.112258     19.483552
PR04  13724.278722 -18157.516012 -11491.392938     58.119060
PR05  -1082.700395 -12523.273334 -22187.616651     54.978040
PR07 -20784.810464  13873.878539  -4973.674069    -38.877333
PR08 -13630.775865  18207.422402  11587.539858    -53.769150
PR09 -11856.290351  -6250.478699  21706.788291    146.229312
PR11  -1324.146700  23199.468244  10604.550314    -32.338638
PR12   6837.524021  23807.351464  -6030.073839    151.387132
PR13  11564.531627  10825.965287 -20005.883783    -41.825359
PR14   9340.464524  -8625.344690 -22093.077677     53.918319
PR15   1790.233017 -22750.968983 -11365.101119    106.956690
PR16  -7649.195916 -23467.997915   6657.043498     -4.894349
PR17  19888.911654   -149.226397  15945.768883    345.533648
PR18   5362.283475  -9135.759650  23213.167390     44.095411
PR19 -11328.613523 -13579.894016  18379.491692   -104.645837
PR20 -23348.555659 -10183.042867    906.705382   -418.051236
PR21 -19307.647821    612.423845 -16683.454361   -141.659471
PR23  17446.118032  13186.203229 -13141.720455    322.033620
PR24  23584.665667   9691.443188   -145.639486      8.052584
PR26 -21958.782363 -11520.438292   6055.504570   -364.005641
EOF
